NORAD_CAT_ID,OBJECT_NAME,OBJECT_TYPE,EPOCH,MEAN_MOTION,ECCENTRICITY,INCLINATION,RA_OF_ASC_NODE,ARG_OF_PERICENTER,MEAN_ANOMALY,BSTAR,MEAN_MOTION_DOT,MEAN_MOTION_DDOT,TLE_LINE0,TLE_LINE1,TLE_LINE2,SEMIMAJOR_AXIS,PERIOD,APOGEE,PERIGEE,DECAYED
55924.0,STARLINK-5849,PAYLOAD,2024-04-25 15:40:16,14.98334661,0.000254,70.0025,206.8077,246.0635,114.0258,1.4505e-06,-7.6e-07,0.0,0 STARLINK-5849,1 55924U 23037L   24116.65296479 -.00000076  00000-0  14505-5 0  9996,2 55924  70.0025 206.8077 0002540 246.0635 114.0258 14.98334661 61663,6950.178,96.107,573.809,570.278,0.0
55924.0,STARLINK-5849,PAYLOAD,2024-04-26 12:30:01,14.98326128,0.0002581,70.0023,204.6185,260.4848,99.6019,0.00014473,1.634e-05,0.0,0 STARLINK-5849,1 55924U 23037L   24117.52084721  .00001634  00000-0  14473-3 0  9990,2 55924  70.0023 204.6185 0002581 260.4848  99.6019 14.98326128 62133,6950.205,96.107,573.864,570.276,0.0
55924.0,STARLINK-5849,PAYLOAD,2024-04-26 14:06:09,14.9832769,0.0002531,70.0022,204.4507,255.7593,104.3285,9.7811e-05,1.074e-05,0.0,0 STARLINK-5849,1 55924U 23037L   24117.58760761  .00001074  00000-0  97811-4 0  9997,2 55924  70.0022 204.4507 0002531 255.7593 104.3285 14.98327690 61804,6950.2,96.107,573.824,570.306,0.0
55924.0,STARLINK-5849,PAYLOAD,2024-04-26 15:42:17,14.98330863,0.0002694,70.0013,204.2792,262.9692,97.1161,0.00012849,1.441e-05,0.0,0 STARLINK-5849,1 55924U 23037L   24117.65436467  .00001441  00000-0  12849-3 0  9993,2 55924  70.0013 204.2792 0002694 262.9692  97.1161 14.98330863 61817,6950.19,96.107,573.928,570.183,0.0
55924.0,STARLINK-5849,PAYLOAD,2024-04-27 04:31:20,14.98344282,0.0002953,70.0009,202.9331,266.8104,93.2718,6.9754e-05,7.4e-06,0.0,0 STARLINK-5849,1 55924U 23037L   24118.18843554  .00000740  00000-0  69754-4 0  9990,2 55924  70.0009 202.9331 0002953 266.8104  93.2718 14.98344282 62237,6950.149,96.106,574.066,569.961,0.0
55924.0,STARLINK-5849,PAYLOAD,2024-04-27 14:08:08,14.98349941,0.0002904,70.0011,201.9235,267.2777,92.805,0.00011496,1.28e-05,0.0,0 STARLINK-5849,1 55924U 23037L   24118.58898631  .00001280  00000-0  11496-3 0  9999,2 55924  70.0011 201.9235 0002904 267.2777  92.8050 14.98349941 61958,6950.131,96.106,574.015,569.978,0.0
55924.0,STARLINK-5849,PAYLOAD,2024-04-27 15:44:16,14.98351009,0.0002878,70.0011,201.7552,266.5639,93.519,0.00014076,1.588e-05,0.0,0 STARLINK-5849,1 55924U 23037L   24118.65574450  .00001588  00000-0  14076-3 0  9995,2 55924  70.0011 201.7552 0002878 266.5639  93.5190 14.98351009 62308,6950.128,96.106,573.993,569.993,0.0
55924.0,STARLINK-5849,PAYLOAD,2024-04-28 04:33:23,14.98318311,0.0003169,70.0006,200.4089,267.875,92.2047,-0.00018506,-2.3e-05,0.0,0 STARLINK-5849,1 55924U 23037L   24119.18985418 -.00002300  00000-0 -18506-3 0  9991,2 55924  70.0006 200.4089 0003169 267.8750  92.2047 14.98318311 62389,6950.229,96.108,574.297,569.892,0.0
55924.0,STARLINK-5849,PAYLOAD,2024-04-28 14:10:12,14.98314551,0.0003099,69.9999,199.3976,271.7549,88.3255,-0.00021182,-2.618e-05,0.0,0 STARLINK-5849,1 55924U 23037L   24119.59042026 -.00002618  00000-0 -21182-3 0  9991,2 55924  69.9999 199.3976 0003099 271.7549  88.3255 14.98314551 62109,6950.241,96.108,574.26,569.952,0.0
55924.0,STARLINK-5849,PAYLOAD,2024-04-28 22:10:52,14.9832353,0.0003137,70.0,198.5566,267.9189,92.1611,-0.00018963,-2.355e-05,0.0,0 STARLINK-5849,1 55924U 23037L   24119.92421564 -.00002355  00000-0 -18963-3 0  9997,2 55924  70.0000 198.5566 0003137 267.9189  92.1611 14.98323530 62152,6950.213,96.107,574.258,569.898,0.0
55924.0,STARLINK-5849,PAYLOAD,2024-04-29 04:35:24,14.9832417,0.0003291,69.9994,197.883,268.3896,91.6886,-0.00019653,-2.437e-05,0.0,0 STARLINK-5849,1 55924U 23037L   24120.19125606 -.00002437  00000-0 -19653-3 0  9994,2 55924  69.9994 197.8830 0003291 268.3896  91.6886 14.98324170 62539,6950.211,96.107,574.363,569.789,0.0
55924.0,STARLINK-5849,PAYLOAD,2024-04-29 12:36:04,14.98331717,0.0003117,69.9998,197.0413,270.2292,89.851,-0.00011522,-1.468e-05,0.0,0 STARLINK-5849,1 55924U 23037L   24120.52505037 -.00001468  00000-0 -11522-3 0  9991,2 55924  69.9998 197.0413 0003117 270.2292  89.8510 14.98331717 62584,6950.188,96.107,574.219,569.886,0.0
55924.0,STARLINK-5849,PAYLOAD,2024-04-29 14:12:12,14.98334319,0.0003093,69.9999,196.873,271.2991,88.7814,-0.0001131,-1.442e-05,0.0,0 STARLINK-5849,1 55924U 23037L   24120.59180871 -.00001442  00000-0 -11310-3 0  9990,2 55924  69.9999 196.8730 0003093 271.2991  88.7814 14.98334319 62254,6950.18,96.107,574.194,569.895,0.0
55924.0,STARLINK-5849,PAYLOAD,2024-04-29 22:12:52,14.98342503,0.0003092,69.9999,196.0314,272.1119,87.9686,-0.0001179,-1.5e-05,0.0,0 STARLINK-5849,1 55924U 23037L   24120.92560250 -.00001500  00000-0 -11790-3 0  9997,2 55924  69.9999 196.0314 0003092 272.1119  87.9686 14.98342503 62303,6950.154,96.106,574.168,569.87,0.0
55924.0,STARLINK-5849,PAYLOAD,2024-04-30 12:38:04,14.98330096,0.0003013,69.9998,194.5165,268.8718,91.2096,0.00030052,3.495e-05,0.0,0 STARLINK-5849,1 55924U 23037L   24121.52644066  .00003495  00000-0  30052-3 0  9997,2 55924  69.9998 194.5165 0003013 268.8718  91.2096 14.98330096 62733,6950.193,96.107,574.152,569.964,0.0
55924.0,STARLINK-5849,PAYLOAD,2024-04-30 14:14:12,14.983312,0.0003007,69.9998,194.3482,269.0509,91.0305,0.00030621,3.563e-05,0.0,0 STARLINK-5849,1 55924U 23037L   24121.59319980  .00003563  00000-0  30621-3 0  9996,2 55924  69.9998 194.3482 0003007 269.0509  91.0305 14.98331200 62400,6950.189,96.107,574.144,569.964,0.0
55924.0,STARLINK-5849,PAYLOAD,2024-04-30 22:14:53,14.98328499,0.000296,69.9999,193.5066,268.3969,91.6851,0.00016856,1.919e-05,0.0,0 STARLINK-5849,1 55924U 23037L   24121.92700507  .00001919  00000-0  16856-3 0  9999,2 55924  69.9999 193.5066 0002960 268.3969  91.6851 14.98328499 62452,6950.198,96.107,574.12,570.005,0.0
55924.0,STARLINK-5849,PAYLOAD,2024-05-01 11:03:57,14.98336396,0.0002966,69.9999,192.16,268.1428,91.9391,7.3253e-05,7.81e-06,0.0,0 STARLINK-5849,1 55924U 23037L   24122.46108122  .00000781  00000-0  73253-4 0  9995,2 55924  69.9999 192.1600 0002966 268.1428  91.9391 14.98336396 62531,6950.173,96.107,574.1,569.977,0.0
55924.0,STARLINK-5849,PAYLOAD,2024-05-01 22:16:53,14.98334137,0.0002952,70.0001,190.9799,268.3589,91.7232,-1.1107e-05,-2.26e-06,0.0,0 STARLINK-5849,1 55924U 23037L   24122.92840269 -.00000226  00000-0 -11107-4 0  9997,2 55924  70.0001 190.9799 0002952 268.3589  91.7232 14.98334137 62609,6950.18,96.107,574.097,569.993,0.0
55924.0,STARLINK-5849,PAYLOAD,2024-05-02 04:41:26,14.98334821,0.0003001,69.9999,190.307,267.3747,92.7069,-6.7742e-05,-9.01e-06,0.0,0 STARLINK-5849,1 55924U 23037L   24123.19544240 -.00000901  00000-0 -67742-4 0  9993,2 55924  69.9999 190.3070 0003001 267.3747  92.7069 14.98334821 62989,6950.178,96.107,574.129,569.957,0.0
55924.0,STARLINK-5849,PAYLOAD,2024-05-02 14:18:14,14.98334372,0.0003131,69.9997,189.2996,269.338,90.742,-0.00010498,-1.346e-05,0.0,0 STARLINK-5849,1 55924U 23037L   24123.59600257 -.00001346  00000-0 -10498-3 0  9997,2 55924  69.9997 189.2996 0003131 269.3380  90.7420 14.98334372 62700,6950.179,96.107,574.22,569.868,0.0
55924.0,STARLINK-5849,PAYLOAD,2024-05-03 04:43:26,14.98343662,0.0002951,69.9994,187.7837,271.0655,89.0166,-0.00014561,-1.831e-05,0.0,0 STARLINK-5849,1 55924U 23037L   24124.19683590 -.00001831  00000-0 -14561-3 0  9999,2 55924  69.9994 187.7837 0002951 271.0655  89.0166 14.98343662 63136,6950.151,96.106,574.067,569.965,0.0
55924.0,STARLINK-5849,PAYLOAD,2024-05-03 14:20:14,14.98338217,0.0003113,69.9995,186.7739,270.5199,89.5604,5.3984e-05,5.51e-06,0.0,0 STARLINK-5849,1 55924U 23037L   24124.59739160  .00000551  00000-0  53984-4 0  9997,2 55924  69.9995 186.7739 0003113 270.5199  89.5604 14.98338217 62855,6950.167,96.106,574.196,569.869,0.0
55924.0,STARLINK-5849,PAYLOAD,2024-05-04 04:45:28,14.9831818,0.0002877,70.0012,185.2604,269.7209,90.362,-4.0789e-05,-5.79e-06,0.0,0 STARLINK-5849,1 55924U 23037L   24125.19824797 -.00000579  00000-0 -40789-4 0  9996,2 55924  70.0012 185.2604 0002877 269.7209  90.3620 14.98318180 63284,6950.229,96.108,574.094,570.095,0.0
55924.0,STARLINK-5849,PAYLOAD,2024-05-05 04:47:30,14.9832292,0.0003282,69.999,182.7345,273.912,86.1664,-0.00010444,-1.339e-05,0.0,0 STARLINK-5849,1 55924U 23037L   24126.19965326 -.00001339  00000-0 -10444-3 0  9990,2 55924  69.9990 182.7345 0003282 273.9120  86.1664 14.98322920 63435,6950.215,96.107,574.361,569.799,0.0
55924.0,STARLINK-5849,PAYLOAD,2024-05-05 12:48:10,14.98327968,0.0003194,69.9993,181.8929,274.09,85.9894,-5.1576e-05,-7.08e-06,0.0,0 STARLINK-5849,1 55924U 23037L   24126.53344990 -.00000708  00000-0 -51576-4 0  9997,2 55924  69.9993 181.8929 0003194 274.0900  85.9894 14.98327968 63143,6950.199,96.107,574.284,569.844,0.0
55924.0,STARLINK-5849,PAYLOAD,2024-05-05 20:48:50,14.983365,0.0003124,69.9994,181.0517,268.7004,91.3797,-0.00012203,-1.549e-05,0.0,0 STARLINK-5849,1 55924U 23037L   24126.86724606 -.00001549  00000-0 -12203-3 0  9996,2 55924  69.9994 181.0517 0003124 268.7004  91.3797 14.98336500 63535,6950.173,96.107,574.209,569.867,0.0
55924.0,STARLINK-5849,PAYLOAD,2024-05-06 12:50:10,14.98331927,0.0003091,69.999,179.3678,270.4587,89.6218,0.0002148,2.471e-05,0.0,0 STARLINK-5849,1 55924U 23037L   24127.53484156  .00002471  00000-0  21480-3 0  9994,2 55924  69.9990 179.3678 0003091 270.4587  89.6218 14.98331927 63297,6950.187,96.107,574.2,569.904,0.0
55924.0,STARLINK-5849,PAYLOAD,2024-05-06 20:50:50,14.9833115,0.000307,69.9991,178.5262,270.4875,89.5932,0.00015845,1.798e-05,0.0,0 STARLINK-5849,1 55924U 23037L   24127.86864315  .00001798  00000-0  15845-3 0  9998,2 55924  69.9991 178.5262 0003070 270.4875  89.5932 14.98331150 63688,6950.189,96.107,574.188,569.921,0.0
55924.0,STARLINK-5849,PAYLOAD,2024-05-07 12:52:11,14.98330894,0.0002956,69.9993,176.8429,269.1096,90.9724,5.5289e-05,5.67e-06,0.0,0 STARLINK-5849,1 55924U 23037L   24128.53624604  .00000567  00000-0  55289-4 0  9998,2 55924  69.9993 176.8429 0002956 269.1096  90.9724 14.98330894 63441,6950.19,96.107,574.11,570.001,0.0
